<?xml version="1.0" encoding="UTF-8"?>
<kml xmlns="http://www.opengis.net/kml/2.2" xmlns:gx="http://www.google.com/kml/ext/2.2">
    <Document id="1">
        <Folder id="2">
            <name>Landing Points</name>
            <Placemark id="4">
                <Point id="3">
                    <coordinates>-117.810157026606,35.35482188734986,0.0</coordinates>
                </Point>
            </Placemark>
            <Placemark id="6">
                <Point id="5">
                    <coordinates>-117.81015208923989,35.3562358994301,0.0</coordinates>
                </Point>
            </Placemark>
            <Placemark id="8">
                <Point id="7">
                    <coordinates>-117.81014443071011,35.35936756342098,0.0</coordinates>
                </Point>
            </Placemark>
            <Placemark id="10">
                <Point id="9">
                    <coordinates>-117.81015127990139,35.35754600783148,0.0</coordinates>
                </Point>
            </Placemark>
            <Placemark id="12">
                <Point id="11">
                    <coordinates>-117.81015638982271,35.355259957367025,0.0</coordinates>
                </Point>
            </Placemark>
            <Placemark id="14">
                <Point id="13">
                    <coordinates>-117.81014896707325,35.358251539028146,0.0</coordinates>
                </Point>
            </Placemark>
            <Placemark id="16">
                <Point id="15">
                    <coordinates>-117.81015113109831,35.35770117295218,0.0</coordinates>
                </Point>
            </Placemark>
            <Placemark id="18">
                <Point id="17">
                    <coordinates>-117.81015524767567,35.35563437347827,0.0</coordinates>
                </Point>
            </Placemark>
            <Placemark id="20">
                <Point id="19">
                    <coordinates>-117.81015692827685,35.35517384225304,0.0</coordinates>
                </Point>
            </Placemark>
            <Placemark id="22">
                <Point id="21">
                    <coordinates>-117.81014767292415,35.358259201295155,0.0</coordinates>
                </Point>
            </Placemark>
            <Placemark id="24">
                <Point id="23">
                    <coordinates>-117.81014855612929,35.358587418618946,0.0</coordinates>
                </Point>
            </Placemark>
            <Placemark id="26">
                <Point id="25">
                    <coordinates>-117.81015644720004,35.35541413680067,0.0</coordinates>
                </Point>
            </Placemark>
            <Placemark id="28">
                <Point id="27">
                    <coordinates>-117.81015066610195,35.35775086481935,0.0</coordinates>
                </Point>
            </Placemark>
            <Placemark id="30">
                <Point id="29">
                    <coordinates>-117.81015438363818,35.35541549065924,0.0</coordinates>
                </Point>
            </Placemark>
            <Placemark id="32">
                <Point id="31">
                    <coordinates>-117.81014681382918,35.35858219902521,0.0</coordinates>
                </Point>
            </Placemark>
            <Placemark id="34">
                <Point id="33">
                    <coordinates>-117.81015766452633,35.35502101793988,0.0</coordinates>
                </Point>
            </Placemark>
            <Placemark id="36">
                <Point id="35">
                    <coordinates>-117.81014639794135,35.3586538037775,0.0</coordinates>
                </Point>
            </Placemark>
            <Placemark id="38">
                <Point id="37">
                    <coordinates>-117.81015561077469,35.35565563859837,0.0</coordinates>
                </Point>
            </Placemark>
            <Placemark id="40">
                <Point id="39">
                    <coordinates>-117.81015186857957,35.3567507607774,0.0</coordinates>
                </Point>
            </Placemark>
            <Placemark id="42">
                <Point id="41">
                    <coordinates>-117.8101555652637,35.355048204913885,0.0</coordinates>
                </Point>
            </Placemark>
            <Placemark id="44">
                <Point id="43">
                    <coordinates>-117.81014457634797,35.35938750020013,0.0</coordinates>
                </Point>
            </Placemark>
            <Placemark id="46">
                <Point id="45">
                    <coordinates>-117.81014989283196,35.3579271140409,0.0</coordinates>
                </Point>
            </Placemark>
            <Placemark id="48">
                <Point id="47">
                    <coordinates>-117.81014824452208,35.358377846152344,0.0</coordinates>
                </Point>
            </Placemark>
            <Placemark id="50">
                <Point id="49">
                    <coordinates>-117.81015108816491,35.35705883638016,0.0</coordinates>
                </Point>
            </Placemark>
            <Placemark id="52">
                <Point id="51">
                    <coordinates>-117.81014459379466,35.35912967090419,0.0</coordinates>
                </Point>
            </Placemark>
            <Placemark id="54">
                <Point id="53">
                    <coordinates>-117.81015002873299,35.35758624803259,0.0</coordinates>
                </Point>
            </Placemark>
            <Placemark id="56">
                <Point id="55">
                    <coordinates>-117.81014533734792,35.35928908803499,0.0</coordinates>
                </Point>
            </Placemark>
            <Placemark id="58">
                <Point id="57">
                    <coordinates>-117.81015642853664,35.35497666742445,0.0</coordinates>
                </Point>
            </Placemark>
            <Placemark id="60">
                <Point id="59">
                    <coordinates>-117.81015172880427,35.35652306305814,0.0</coordinates>
                </Point>
            </Placemark>
            <Placemark id="62">
                <Point id="61">
                    <coordinates>-117.81015685956903,35.35538995769152,0.0</coordinates>
                </Point>
            </Placemark>
            <Placemark id="64">
                <Point id="63">
                    <coordinates>-117.81015552068887,35.35516309204312,0.0</coordinates>
                </Point>
            </Placemark>
            <Placemark id="66">
                <Point id="65">
                    <coordinates>-117.81014715918685,35.358659974127484,0.0</coordinates>
                </Point>
            </Placemark>
            <Placemark id="68">
                <Point id="67">
                    <coordinates>-117.81015209894653,35.3563099376746,0.0</coordinates>
                </Point>
            </Placemark>
            <Placemark id="70">
                <Point id="69">
                    <coordinates>-117.81015546695207,35.35617913618647,0.0</coordinates>
                </Point>
            </Placemark>
            <Placemark id="72">
                <Point id="71">
                    <coordinates>-117.81015403576396,35.3561709170222,0.0</coordinates>
                </Point>
            </Placemark>
            <Placemark id="74">
                <Point id="73">
                    <coordinates>-117.81014646972125,35.35859179972864,0.0</coordinates>
                </Point>
            </Placemark>
            <Placemark id="76">
                <Point id="75">
                    <coordinates>-117.81015409741555,35.356489515759144,0.0</coordinates>
                </Point>
            </Placemark>
            <Placemark id="78">
                <Point id="77">
                    <coordinates>-117.81014634080894,35.35888666295081,0.0</coordinates>
                </Point>
            </Placemark>
            <Placemark id="80">
                <Point id="79">
                    <coordinates>-117.81015496820369,35.35647838811065,0.0</coordinates>
                </Point>
            </Placemark>
            <Placemark id="82">
                <Point id="81">
                    <coordinates>-117.81014566353906,35.35909951235105,0.0</coordinates>
                </Point>
            </Placemark>
            <Placemark id="84">
                <Point id="83">
                    <coordinates>-117.81014573518281,35.359130778634594,0.0</coordinates>
                </Point>
            </Placemark>
            <Placemark id="86">
                <Point id="85">
                    <coordinates>-117.81015770235065,35.35517363872898,0.0</coordinates>
                </Point>
            </Placemark>
            <Placemark id="88">
                <Point id="87">
                    <coordinates>-117.81015838380581,35.3550741125136,0.0</coordinates>
                </Point>
            </Placemark>
            <Placemark id="90">
                <Point id="89">
                    <coordinates>-117.81015692962325,35.35503428339577,0.0</coordinates>
                </Point>
            </Placemark>
            <Placemark id="92">
                <Point id="91">
                    <coordinates>-117.81014702793843,35.35816082614115,0.0</coordinates>
                </Point>
            </Placemark>
            <Placemark id="94">
                <Point id="93">
                    <coordinates>-117.81014466162685,35.35903129109132,0.0</coordinates>
                </Point>
            </Placemark>
            <Placemark id="96">
                <Point id="95">
                    <coordinates>-117.81015008113879,35.357444637047934,0.0</coordinates>
                </Point>
            </Placemark>
            <Placemark id="98">
                <Point id="97">
                    <coordinates>-117.81014850649898,35.358782201936314,0.0</coordinates>
                </Point>
            </Placemark>
            <Placemark id="100">
                <Point id="99">
                    <coordinates>-117.81015174968701,35.35669912389304,0.0</coordinates>
                </Point>
            </Placemark>
            <Placemark id="102">
                <Point id="101">
                    <coordinates>-117.81014485542902,35.35897245235448,0.0</coordinates>
                </Point>
            </Placemark>
            <Placemark id="104">
                <Point id="103">
                    <coordinates>-117.81015268836212,35.35670297737858,0.0</coordinates>
                </Point>
            </Placemark>
            <Placemark id="106">
                <Point id="105">
                    <coordinates>-117.81014828716154,35.35794518200815,0.0</coordinates>
                </Point>
            </Placemark>
            <Placemark id="108">
                <Point id="107">
                    <coordinates>-117.81015067087863,35.357885003271136,0.0</coordinates>
                </Point>
            </Placemark>
            <Placemark id="110">
                <Point id="109">
                    <coordinates>-117.81014643485388,35.35878139112708,0.0</coordinates>
                </Point>
            </Placemark>
            <Placemark id="112">
                <Point id="111">
                    <coordinates>-117.8101535227782,35.356781951661475,0.0</coordinates>
                </Point>
            </Placemark>
            <Placemark id="114">
                <Point id="113">
                    <coordinates>-117.81015240320082,35.35643125879156,0.0</coordinates>
                </Point>
            </Placemark>
            <Placemark id="116">
                <Point id="115">
                    <coordinates>-117.81015042999474,35.35709751002129,0.0</coordinates>
                </Point>
            </Placemark>
            <Placemark id="118">
                <Point id="117">
                    <coordinates>-117.8101548561913,35.35633384632675,0.0</coordinates>
                </Point>
            </Placemark>
            <Placemark id="120">
                <Point id="119">
                    <coordinates>-117.81014728027556,35.35903181625102,0.0</coordinates>
                </Point>
            </Placemark>
            <Placemark id="122">
                <Point id="121">
                    <coordinates>-117.8101501804545,35.35766177255211,0.0</coordinates>
                </Point>
            </Placemark>
            <Placemark id="124">
                <Point id="123">
                    <coordinates>-117.81015686923932,35.35564319894783,0.0</coordinates>
                </Point>
            </Placemark>
            <Placemark id="126">
                <Point id="125">
                    <coordinates>-117.81015403072965,35.35679464494974,0.0</coordinates>
                </Point>
            </Placemark>
            <Placemark id="128">
                <Point id="127">
                    <coordinates>-117.81015296792286,35.35684578849627,0.0</coordinates>
                </Point>
            </Placemark>
            <Placemark id="130">
                <Point id="129">
                    <coordinates>-117.81015266983877,35.35651414203447,0.0</coordinates>
                </Point>
            </Placemark>
            <Placemark id="132">
                <Point id="131">
                    <coordinates>-117.81015273667668,35.35678630990733,0.0</coordinates>
                </Point>
            </Placemark>
            <Placemark id="134">
                <Point id="133">
                    <coordinates>-117.81015148366063,35.35735932933261,0.0</coordinates>
                </Point>
            </Placemark>
            <Placemark id="136">
                <Point id="135">
                    <coordinates>-117.81014552337028,35.35908416483434,0.0</coordinates>
                </Point>
            </Placemark>
            <Placemark id="138">
                <Point id="137">
                    <coordinates>-117.8101490479814,35.35780921424175,0.0</coordinates>
                </Point>
            </Placemark>
            <Placemark id="140">
                <Point id="139">
                    <coordinates>-117.81014437341148,35.359242208568254,0.0</coordinates>
                </Point>
            </Placemark>
            <Placemark id="142">
                <Point id="141">
                    <coordinates>-117.81015619236105,35.355234738138066,0.0</coordinates>
                </Point>
            </Placemark>
            <Placemark id="144">
                <Point id="143">
                    <coordinates>-117.81015298333557,35.356319700333586,0.0</coordinates>
                </Point>
            </Placemark>
            <Placemark id="146">
                <Point id="145">
                    <coordinates>-117.8101570302391,35.35502354650724,0.0</coordinates>
                </Point>
            </Placemark>
            <Placemark id="148">
                <Point id="147">
                    <coordinates>-117.81015535280575,35.35591698156599,0.0</coordinates>
                </Point>
            </Placemark>
            <Placemark id="150">
                <Point id="149">
                    <coordinates>-117.81015114378467,35.35753921439908,0.0</coordinates>
                </Point>
            </Placemark>
            <Placemark id="152">
                <Point id="151">
                    <coordinates>-117.81014512345327,35.35910572345063,0.0</coordinates>
                </Point>
            </Placemark>
            <Placemark id="154">
                <Point id="153">
                    <coordinates>-117.81015511856621,35.3554822594428,0.0</coordinates>
                </Point>
            </Placemark>
            <Placemark id="156">
                <Point id="155">
                    <coordinates>-117.81015672223174,35.35539414413949,0.0</coordinates>
                </Point>
            </Placemark>
            <Placemark id="158">
                <Point id="157">
                    <coordinates>-117.81014921815425,35.35802423215203,0.0</coordinates>
                </Point>
            </Placemark>
            <Placemark id="160">
                <Point id="159">
                    <coordinates>-117.81014652804683,35.358987179776435,0.0</coordinates>
                </Point>
            </Placemark>
            <Placemark id="162">
                <Point id="161">
                    <coordinates>-117.81015608939066,35.355249810179586,0.0</coordinates>
                </Point>
            </Placemark>
            <Placemark id="164">
                <Point id="163">
                    <coordinates>-117.81015119381978,35.35673939719503,0.0</coordinates>
                </Point>
            </Placemark>
            <Placemark id="166">
                <Point id="165">
                    <coordinates>-117.81014681333123,35.35805540087283,0.0</coordinates>
                </Point>
            </Placemark>
            <Placemark id="168">
                <Point id="167">
                    <coordinates>-117.81015484105558,35.356396609872604,0.0</coordinates>
                </Point>
            </Placemark>
            <Placemark id="170">
                <Point id="169">
                    <coordinates>-117.81015165033894,35.35784076425773,0.0</coordinates>
                </Point>
            </Placemark>
            <Placemark id="172">
                <Point id="171">
                    <coordinates>-117.81015356634256,35.35680065116056,0.0</coordinates>
                </Point>
            </Placemark>
            <Placemark id="174">
                <Point id="173">
                    <coordinates>-117.81015094190622,35.357237570615304,0.0</coordinates>
                </Point>
            </Placemark>
            <Placemark id="176">
                <Point id="175">
                    <coordinates>-117.81015095788399,35.3570373870528,0.0</coordinates>
                </Point>
            </Placemark>
            <Placemark id="178">
                <Point id="177">
                    <coordinates>-117.81014801211136,35.35862300637442,0.0</coordinates>
                </Point>
            </Placemark>
            <Placemark id="180">
                <Point id="179">
                    <coordinates>-117.81015576014191,35.35611771341889,0.0</coordinates>
                </Point>
            </Placemark>
            <Placemark id="182">
                <Point id="181">
                    <coordinates>-117.81015144410483,35.357333627733524,0.0</coordinates>
                </Point>
            </Placemark>
            <Placemark id="184">
                <Point id="183">
                    <coordinates>-117.81015483052511,35.356464484666226,0.0</coordinates>
                </Point>
            </Placemark>
            <Placemark id="186">
                <Point id="185">
                    <coordinates>-117.81015016204756,35.35771574121723,0.0</coordinates>
                </Point>
            </Placemark>
            <Placemark id="188">
                <Point id="187">
                    <coordinates>-117.8101566561292,35.35497127358825,0.0</coordinates>
                </Point>
            </Placemark>
            <Placemark id="190">
                <Point id="189">
                    <coordinates>-117.8101519078409,35.35686407427895,0.0</coordinates>
                </Point>
            </Placemark>
            <Placemark id="192">
                <Point id="191">
                    <coordinates>-117.81014648527824,35.35923579495159,0.0</coordinates>
                </Point>
            </Placemark>
            <Placemark id="194">
                <Point id="193">
                    <coordinates>-117.81015530020875,35.355300474215795,0.0</coordinates>
                </Point>
            </Placemark>
            <Placemark id="196">
                <Point id="195">
                    <coordinates>-117.81014949698819,35.35814283603427,0.0</coordinates>
                </Point>
            </Placemark>
            <Placemark id="198">
                <Point id="197">
                    <coordinates>-117.81015343343945,35.35644618513339,0.0</coordinates>
                </Point>
            </Placemark>
            <Placemark id="200">
                <Point id="199">
                    <coordinates>-117.81015803095299,35.35510596276862,0.0</coordinates>
                </Point>
            </Placemark>
            <Placemark id="202">
                <Point id="201">
                    <coordinates>-117.81015484071976,35.35639255684225,0.0</coordinates>
                </Point>
            </Placemark>
            <Placemark id="204">
                <Point id="203">
                    <coordinates>-117.81014893224264,35.3583147687222,0.0</coordinates>
                </Point>
            </Placemark>
            <Placemark id="206">
                <Point id="205">
                    <coordinates>-117.81014939655948,35.357944338436546,0.0</coordinates>
                </Point>
            </Placemark>
            <Placemark id="208">
                <Point id="207">
                    <coordinates>-117.81015544308848,35.35548847308987,0.0</coordinates>
                </Point>
            </Placemark>
            <Placemark id="210">
                <Point id="209">
                    <coordinates>-117.81014704122582,35.358848280045834,0.0</coordinates>
                </Point>
            </Placemark>
            <Placemark id="212">
                <Point id="211">
                    <coordinates>-117.81014784602962,35.35796706626304,0.0</coordinates>
                </Point>
            </Placemark>
            <Placemark id="214">
                <Point id="213">
                    <coordinates>-117.81015829313604,35.354892547865624,0.0</coordinates>
                </Point>
            </Placemark>
            <Placemark id="216">
                <Point id="215">
                    <coordinates>-117.81015318229804,35.356213804767386,0.0</coordinates>
                </Point>
            </Placemark>
            <Placemark id="218">
                <Point id="217">
                    <coordinates>-117.81015685411866,35.35583244757146,0.0</coordinates>
                </Point>
            </Placemark>
            <Placemark id="220">
                <Point id="219">
                    <coordinates>-117.81014614064989,35.35885797382893,0.0</coordinates>
                </Point>
            </Placemark>
            <Placemark id="222">
                <Point id="221">
                    <coordinates>-117.8101491690832,35.35792256509519,0.0</coordinates>
                </Point>
            </Placemark>
            <Placemark id="224">
                <Point id="223">
                    <coordinates>-117.8101446315567,35.359434145307354,0.0</coordinates>
                </Point>
            </Placemark>
            <Placemark id="226">
                <Point id="225">
                    <coordinates>-117.81014826526895,35.35827926753707,0.0</coordinates>
                </Point>
            </Placemark>
            <Placemark id="228">
                <Point id="227">
                    <coordinates>-117.81014587221166,35.35918970035616,0.0</coordinates>
                </Point>
            </Placemark>
            <Placemark id="230">
                <Point id="229">
                    <coordinates>-117.81015746579418,35.35502488981534,0.0</coordinates>
                </Point>
            </Placemark>
            <Placemark id="232">
                <Point id="231">
                    <coordinates>-117.81015211662385,35.35712014858628,0.0</coordinates>
                </Point>
            </Placemark>
            <Placemark id="234">
                <Point id="233">
                    <coordinates>-117.81015384701,35.35680966345389,0.0</coordinates>
                </Point>
            </Placemark>
            <Placemark id="236">
                <Point id="235">
                    <coordinates>-117.8101470571554,35.358668527644355,0.0</coordinates>
                </Point>
            </Placemark>
            <Placemark id="238">
                <Point id="237">
                    <coordinates>-117.81015488687508,35.35615672713915,0.0</coordinates>
                </Point>
            </Placemark>
            <Placemark id="240">
                <Point id="239">
                    <coordinates>-117.81014807463683,35.358620212264334,0.0</coordinates>
                </Point>
            </Placemark>
            <Placemark id="242">
                <Point id="241">
                    <coordinates>-117.81015461897836,35.35551823605684,0.0</coordinates>
                </Point>
            </Placemark>
            <Placemark id="244">
                <Point id="243">
                    <coordinates>-117.81014873548709,35.35781888389555,0.0</coordinates>
                </Point>
            </Placemark>
            <Placemark id="246">
                <Point id="245">
                    <coordinates>-117.8101522384165,35.35659669837396,0.0</coordinates>
                </Point>
            </Placemark>
            <Placemark id="248">
                <Point id="247">
                    <coordinates>-117.81014525378995,35.35891701285398,0.0</coordinates>
                </Point>
            </Placemark>
            <Placemark id="250">
                <Point id="249">
                    <coordinates>-117.81015636532705,35.356007593018106,0.0</coordinates>
                </Point>
            </Placemark>
            <Placemark id="252">
                <Point id="251">
                    <coordinates>-117.81014633680773,35.359021147656506,0.0</coordinates>
                </Point>
            </Placemark>
            <Placemark id="254">
                <Point id="253">
                    <coordinates>-117.81015796314276,35.35546344140789,0.0</coordinates>
                </Point>
            </Placemark>
            <Placemark id="256">
                <Point id="255">
                    <coordinates>-117.81015123242108,35.35743909423784,0.0</coordinates>
                </Point>
            </Placemark>
            <Placemark id="258">
                <Point id="257">
                    <coordinates>-117.81014790274953,35.358104278788616,0.0</coordinates>
                </Point>
            </Placemark>
            <Placemark id="260">
                <Point id="259">
                    <coordinates>-117.81014699781656,35.35810211543498,0.0</coordinates>
                </Point>
            </Placemark>
            <Placemark id="262">
                <Point id="261">
                    <coordinates>-117.81014794623374,35.35893755948819,0.0</coordinates>
                </Point>
            </Placemark>
            <Placemark id="264">
                <Point id="263">
                    <coordinates>-117.81014540779005,35.35872109640632,0.0</coordinates>
                </Point>
            </Placemark>
            <Placemark id="266">
                <Point id="265">
                    <coordinates>-117.81014838924199,35.358289103499104,0.0</coordinates>
                </Point>
            </Placemark>
            <Placemark id="268">
                <Point id="267">
                    <coordinates>-117.81015509899902,35.355582171420814,0.0</coordinates>
                </Point>
            </Placemark>
            <Placemark id="270">
                <Point id="269">
                    <coordinates>-117.81015413642898,35.356572861047724,0.0</coordinates>
                </Point>
            </Placemark>
            <Placemark id="272">
                <Point id="271">
                    <coordinates>-117.8101460414208,35.35944589428923,0.0</coordinates>
                </Point>
            </Placemark>
            <Placemark id="274">
                <Point id="273">
                    <coordinates>-117.81015330395034,35.3567494909751,0.0</coordinates>
                </Point>
            </Placemark>
            <Placemark id="276">
                <Point id="275">
                    <coordinates>-117.81014973504851,35.35753867590336,0.0</coordinates>
                </Point>
            </Placemark>
            <Placemark id="278">
                <Point id="277">
                    <coordinates>-117.8101528460938,35.35714911586496,0.0</coordinates>
                </Point>
            </Placemark>
            <Placemark id="280">
                <Point id="279">
                    <coordinates>-117.8101508384987,35.356926677614595,0.0</coordinates>
                </Point>
            </Placemark>
            <Placemark id="282">
                <Point id="281">
                    <coordinates>-117.81015785833665,35.35515234401976,0.0</coordinates>
                </Point>
            </Placemark>
            <Placemark id="284">
                <Point id="283">
                    <coordinates>-117.81014366147193,35.35911966707263,0.0</coordinates>
                </Point>
            </Placemark>
            <Placemark id="286">
                <Point id="285">
                    <coordinates>-117.81015124903932,35.35726068766626,0.0</coordinates>
                </Point>
            </Placemark>
            <Placemark id="288">
                <Point id="287">
                    <coordinates>-117.81015881888038,35.35487472779746,0.0</coordinates>
                </Point>
            </Placemark>
            <Placemark id="290">
                <Point id="289">
                    <coordinates>-117.81014901041566,35.358386119341276,0.0</coordinates>
                </Point>
            </Placemark>
            <Placemark id="292">
                <Point id="291">
                    <coordinates>-117.81014495308287,35.35922798782877,0.0</coordinates>
                </Point>
            </Placemark>
            <Placemark id="294">
                <Point id="293">
                    <coordinates>-117.81015712432813,35.35523406523791,0.0</coordinates>
                </Point>
            </Placemark>
            <Placemark id="296">
                <Point id="295">
                    <coordinates>-117.8101581616637,35.35499437373347,0.0</coordinates>
                </Point>
            </Placemark>
            <Placemark id="298">
                <Point id="297">
                    <coordinates>-117.81015609875354,35.35495768062872,0.0</coordinates>
                </Point>
            </Placemark>
            <Placemark id="300">
                <Point id="299">
                    <coordinates>-117.8101549405105,35.35601335637246,0.0</coordinates>
                </Point>
            </Placemark>
            <Placemark id="302">
                <Point id="301">
                    <coordinates>-117.81015718100889,35.35576960575966,0.0</coordinates>
                </Point>
            </Placemark>
            <Placemark id="304">
                <Point id="303">
                    <coordinates>-117.81015120002807,35.357029285669796,0.0</coordinates>
                </Point>
            </Placemark>
            <Placemark id="306">
                <Point id="305">
                    <coordinates>-117.8101474771961,35.35873705392596,0.0</coordinates>
                </Point>
            </Placemark>
            <Placemark id="308">
                <Point id="307">
                    <coordinates>-117.81015622479774,35.35560657612736,0.0</coordinates>
                </Point>
            </Placemark>
            <Placemark id="310">
                <Point id="309">
                    <coordinates>-117.81015460628652,35.35641777094336,0.0</coordinates>
                </Point>
            </Placemark>
            <Placemark id="312">
                <Point id="311">
                    <coordinates>-117.81014741465074,35.35843631325806,0.0</coordinates>
                </Point>
            </Placemark>
            <Placemark id="314">
                <Point id="313">
                    <coordinates>-117.81015096791369,35.35766132435048,0.0</coordinates>
                </Point>
            </Placemark>
            <Placemark id="316">
                <Point id="315">
                    <coordinates>-117.8101533503971,35.356247555244735,0.0</coordinates>
                </Point>
            </Placemark>
            <Placemark id="318">
                <Point id="317">
                    <coordinates>-117.8101570641601,35.355437436910016,0.0</coordinates>
                </Point>
            </Placemark>
            <Placemark id="320">
                <Point id="319">
                    <coordinates>-117.81015637250518,35.3554172114737,0.0</coordinates>
                </Point>
            </Placemark>
            <Placemark id="322">
                <Point id="321">
                    <coordinates>-117.81015345375312,35.356612437796564,0.0</coordinates>
                </Point>
            </Placemark>
            <Placemark id="324">
                <Point id="323">
                    <coordinates>-117.81014770973019,35.358517549767974,0.0</coordinates>
                </Point>
            </Placemark>
            <Placemark id="326">
                <Point id="325">
                    <coordinates>-117.8101589241772,35.35483015542472,0.0</coordinates>
                </Point>
            </Placemark>
            <Placemark id="328">
                <Point id="327">
                    <coordinates>-117.81015537328301,35.3562532230587,0.0</coordinates>
                </Point>
            </Placemark>
            <Placemark id="330">
                <Point id="329">
                    <coordinates>-117.81014761526761,35.358027903194106,0.0</coordinates>
                </Point>
            </Placemark>
            <Placemark id="332">
                <Point id="331">
                    <coordinates>-117.81015205677495,35.357019397653374,0.0</coordinates>
                </Point>
            </Placemark>
            <Placemark id="334">
                <Point id="333">
                    <coordinates>-117.81014631268131,35.35892244348887,0.0</coordinates>
                </Point>
            </Placemark>
            <Placemark id="336">
                <Point id="335">
                    <coordinates>-117.81014769085424,35.35842373858301,0.0</coordinates>
                </Point>
            </Placemark>
            <Placemark id="338">
                <Point id="337">
                    <coordinates>-117.81014817839825,35.358321739193535,0.0</coordinates>
                </Point>
            </Placemark>
            <Placemark id="340">
                <Point id="339">
                    <coordinates>-117.81014557791255,35.35896755335639,0.0</coordinates>
                </Point>
            </Placemark>
            <Placemark id="342">
                <Point id="341">
                    <coordinates>-117.8101502676269,35.357139179555666,0.0</coordinates>
                </Point>
            </Placemark>
            <Placemark id="344">
                <Point id="343">
                    <coordinates>-117.81014768456164,35.358033969770155,0.0</coordinates>
                </Point>
            </Placemark>
            <Placemark id="346">
                <Point id="345">
                    <coordinates>-117.81015643606125,35.355605962727864,0.0</coordinates>
                </Point>
            </Placemark>
            <Placemark id="348">
                <Point id="347">
                    <coordinates>-117.81015345054401,35.35655180727273,0.0</coordinates>
                </Point>
            </Placemark>
            <Placemark id="350">
                <Point id="349">
                    <coordinates>-117.81014895407873,35.358314740956196,0.0</coordinates>
                </Point>
            </Placemark>
            <Placemark id="352">
                <Point id="351">
                    <coordinates>-117.81014986584202,35.35733199296866,0.0</coordinates>
                </Point>
            </Placemark>
            <Placemark id="354">
                <Point id="353">
                    <coordinates>-117.81014536472641,35.35888371505441,0.0</coordinates>
                </Point>
            </Placemark>
            <Placemark id="356">
                <Point id="355">
                    <coordinates>-117.81015428240188,35.35662304246959,0.0</coordinates>
                </Point>
            </Placemark>
            <Placemark id="358">
                <Point id="357">
                    <coordinates>-117.81014885735915,35.35816471693133,0.0</coordinates>
                </Point>
            </Placemark>
            <Placemark id="360">
                <Point id="359">
                    <coordinates>-117.81015642425045,35.35495216739578,0.0</coordinates>
                </Point>
            </Placemark>
            <Placemark id="362">
                <Point id="361">
                    <coordinates>-117.81015789570331,35.35514587585553,0.0</coordinates>
                </Point>
            </Placemark>
            <Placemark id="364">
                <Point id="363">
                    <coordinates>-117.81014950521069,35.35784612441189,0.0</coordinates>
                </Point>
            </Placemark>
            <Placemark id="366">
                <Point id="365">
                    <coordinates>-117.81014762727922,35.358757814779715,0.0</coordinates>
                </Point>
            </Placemark>
            <Placemark id="368">
                <Point id="367">
                    <coordinates>-117.81014715675883,35.35830970801202,0.0</coordinates>
                </Point>
            </Placemark>
            <Placemark id="370">
                <Point id="369">
                    <coordinates>-117.8101538057866,35.356239343660185,0.0</coordinates>
                </Point>
            </Placemark>
            <Placemark id="372">
                <Point id="371">
                    <coordinates>-117.81015167976236,35.35713348093737,0.0</coordinates>
                </Point>
            </Placemark>
            <Placemark id="374">
                <Point id="373">
                    <coordinates>-117.8101441940574,35.35941408323375,0.0</coordinates>
                </Point>
            </Placemark>
            <Placemark id="376">
                <Point id="375">
                    <coordinates>-117.81014733716742,35.35902960082476,0.0</coordinates>
                </Point>
            </Placemark>
            <Placemark id="378">
                <Point id="377">
                    <coordinates>-117.81014566200832,35.35896254016851,0.0</coordinates>
                </Point>
            </Placemark>
            <Placemark id="380">
                <Point id="379">
                    <coordinates>-117.81014567502163,35.35938597351354,0.0</coordinates>
                </Point>
            </Placemark>
            <Placemark id="382">
                <Point id="381">
                    <coordinates>-117.81015450798834,35.35576023191437,0.0</coordinates>
                </Point>
            </Placemark>
            <Placemark id="384">
                <Point id="383">
                    <coordinates>-117.81015465154518,35.35574005602113,0.0</coordinates>
                </Point>
            </Placemark>
            <Placemark id="386">
                <Point id="385">
                    <coordinates>-117.81015057214613,35.3577177206194,0.0</coordinates>
                </Point>
            </Placemark>
            <Placemark id="388">
                <Point id="387">
                    <coordinates>-117.8101543195329,35.356203877953085,0.0</coordinates>
                </Point>
            </Placemark>
            <Placemark id="390">
                <Point id="389">
                    <coordinates>-117.81014566704859,35.358912144102945,0.0</coordinates>
                </Point>
            </Placemark>
            <Placemark id="392">
                <Point id="391">
                    <coordinates>-117.8101462378366,35.35899586961082,0.0</coordinates>
                </Point>
            </Placemark>
            <Placemark id="394">
                <Point id="393">
                    <coordinates>-117.81015408251653,35.356544862609994,0.0</coordinates>
                </Point>
            </Placemark>
            <Placemark id="396">
                <Point id="395">
                    <coordinates>-117.81014808490237,35.35800406993321,0.0</coordinates>
                </Point>
            </Placemark>
            <Placemark id="398">
                <Point id="397">
                    <coordinates>-117.81015254844593,35.35660303854445,0.0</coordinates>
                </Point>
            </Placemark>
            <Placemark id="400">
                <Point id="399">
                    <coordinates>-117.81015506474037,35.35649296229182,0.0</coordinates>
                </Point>
            </Placemark>
            <Placemark id="402">
                <Point id="401">
                    <coordinates>-117.81014648444147,35.358857557823214,0.0</coordinates>
                </Point>
            </Placemark>
        </Folder>
        <Folder id="403">
            <Style id="408">
                <LineStyle id="410">
                    <color>ff008000</color>
                    <colorMode>normal</colorMode>
                    <width>3</width>
                </LineStyle>
                <PolyStyle id="409">
                    <color>32008000</color>
                    <colorMode>normal</colorMode>
                    <fill>1</fill>
                    <outline>1</outline>
                </PolyStyle>
            </Style>
            <Style id="415">
                <LineStyle id="417">
                    <color>ff00ffff</color>
                    <colorMode>normal</colorMode>
                    <width>3</width>
                </LineStyle>
                <PolyStyle id="416">
                    <color>3200ffff</color>
                    <colorMode>normal</colorMode>
                    <fill>1</fill>
                    <outline>1</outline>
                </PolyStyle>
            </Style>
            <Style id="422">
                <LineStyle id="424">
                    <color>ff0000ff</color>
                    <colorMode>normal</colorMode>
                    <width>3</width>
                </LineStyle>
                <PolyStyle id="423">
                    <color>320000ff</color>
                    <colorMode>normal</colorMode>
                    <fill>1</fill>
                    <outline>1</outline>
                </PolyStyle>
            </Style>
            <name>Dispersion Ellipses</name>
            <Placemark id="405">
                <name>1-Sigma Boundary</name>
                <styleUrl>#408</styleUrl>
                <Polygon id="404">
                    <outerBoundaryIs>
                        <LinearRing id="406">
                            <coordinates>-117.81014523382136,35.35930615762882,0.0 -117.81014533755422,35.35930189901481,0.0 -117.81014546534678,35.35928913979485,0.0 -117.81014561668445,35.35926793134583,0.0 -117.81014579095786,35.35923835906669,0.0 -117.81014598746529,35.35920054203454,0.0 -117.81014620541544,35.35915463252525,0.0 -117.81014644393072,35.35910081540018,0.0 -117.81014670205072,35.359039307361925,0.0 -117.81014697873607,35.35897035608163,0.0 -117.81014727287265,35.35889423920177,0.0 -117.81014758327609,35.35881126321815,0.0 -117.8101479086965,35.35872176224578,0.0 -117.81014824782353,35.35862609667348,0.0 -117.81014859929164,35.35852465171275,0.0 -117.81014896168556,35.35841783584664,0.0 -117.8101493335461,35.358306079184935,0.0 -117.81014971337588,35.358189831732275,0.0 -117.81015009964547,35.35806956157613,0.0 -117.8101504907995,35.35794575300196,0.0 -117.81015088526293,35.3578189045432,0.0 -117.81015128144739,35.35768952697382,0.0 -117.81015167775759,35.35755814125164,0.0 -117.81015207259773,35.35742527642057,0.0 -117.81015246437792,35.35729146748041,0.0 -117.81015285152061,35.35715725323252,0.0 -117.8101532324669,35.357023174110324,0.0 -117.81015360568287,35.356889770003114,0.0 -117.8101539696657,35.356757578082146,0.0 -117.81015432294977,35.35662713063763,0.0 -117.81015466411252,35.35649895293538,0.0 -117.81015499178021,35.356373561101776,0.0 -117.81015530463343,35.35625146004546,0.0 -117.81015560141245,35.3561331414243,0.0 -117.81015588092222,35.35601908166563,0.0 -117.81015614203727,35.35590974004783,0.0 -117.81015638370619,35.355805556851,0.0 -117.81015660495584,35.35570695158412,0.0 -117.81015680489534,35.35561432129578,0.0 -117.81015698271962,35.35552803897547,0.0 -117.81015713771262,35.35544845205164,0.0 -117.81015726925024,35.35537588099273,0.0 -117.81015737680283,35.355310618016794,0.0 -117.81015745993732,35.3552529259148,0.0 -117.81015751831895,35.35520303699248,0.0 -117.81015755171263,35.35516115213491,0.0 -117.8101575599839,35.35512743999763,0.0 -117.81015754309948,35.35510203632753,0.0 -117.81015750112732,35.35508504341621,0.0 -117.81015743423644,35.355076529688134,0.0 -117.8101573426962,35.35507652942508,0.0 -117.81015722687519,35.3550850426281,0.0 -117.81015708723977,35.35510203501753,0.0 -117.81015692435221,35.355127438171024,0.0 -117.81015673886841,35.355161149799045,0.0 -117.81015653153524,35.355203034156766,0.0 -117.81015630318755,35.35525292259066,0.0 -117.81015605474484,35.35531061421761,0.0 -117.81015578720748,35.355375876733795,0.0 -117.81015550165274,35.355448447350106,0.0 -117.81015519923048,35.35552803385028,0.0 -117.81015488115841,35.35561431576755,0.0 -117.81015454871732,35.355706945675124,0.0 -117.81015420324583,35.35580555058503,0.0 -117.81015384613502,35.35590973345011,0.0 -117.81015347882287,35.356019074762735,0.0 -117.81015310278839,35.35613313424403,0.0 -117.81015271954575,35.35625145261672,0.0 -117.81015233063815,35.356373553454475,0.0 -117.81015193763156,35.35649894510032,0.0 -117.81015154210849,35.35662712264635,0.0 -117.81015114566156,35.35675756996683,0.0 -117.81015074988714,35.35688976179644,0.0 -117.81015035637886,35.357023165845334,0.0 -117.81014996672124,35.3571572449425,0.0 -117.81014958248329,35.357291459198734,0.0 -117.81014920521223,35.35742526818059,0.0 -117.81014883642716,35.35755813308653,0.0 -117.81014847761305,35.357689518916466,0.0 -117.81014813021476,35.35781889662604,0.0 -117.8101477956311,35.35794574525688,0.0 -117.81014747520932,35.35806955403431,0.0 -117.81014717023966,35.35818982442409,0.0 -117.81014688195012,35.358306072139804,0.0 -117.81014661150155,35.35841782909293,0.0 -117.81014635998294,35.35852464527767,0.0 -117.81014612840706,35.35862609058293,0.0 -117.8101459177064,35.35872175652429,0.0 -117.81014572872937,35.35881125788875,0.0 -117.81014556223691,35.35889423428593,0.0 -117.81014541889944,35.35897035159914,0.0 -117.81014529929412,35.35903930333083,0.0 -117.81014520390255,35.359100811836726,0.0 -117.81014513310885,35.35915462944377,0.0 -117.81014508719808,35.35920053944746,0.0 -117.8101450663551,35.359238356984406,0.0 -117.81014507066385,35.35926792977674,0.0 -117.81014510010696,35.35928913874527,0.0 -117.8101451545659,35.35930189848896,0.0 -117.81014523382136,35.35930615762882,0.0</coordinates>
                        </LinearRing>
                    </outerBoundaryIs>
                </Polygon>
            </Placemark>
            <Placemark id="412">
                <name>2-Sigma Boundary</name>
                <styleUrl>#415</styleUrl>
                <Polygon id="411">
                    <outerBoundaryIs>
                        <LinearRing id="413">
                            <coordinates>-117.8101500883109,35.35761687050293,0.0 -117.8101501092041,35.35761601276047,0.0 -117.81015013494326,35.35761344288098,0.0 -117.81015016542472,35.35760917121248,0.0 -117.81015020052574,35.35760321495546,0.0 -117.81015024010499,35.35759559809366,0.0 -117.8101502840031,35.3575863512975,0.0 -117.8101503320433,35.35757551180057,0.0 -117.81015038403216,35.35756312324969,0.0 -117.81015043976033,35.35754923552918,0.0 -117.81015049900341,35.35753390456,0.0 -117.81015056152287,35.35751719207454,0.0 -117.81015062706695,35.35749916536809,0.0 -117.81015069537172,35.35747989702783,0.0 -117.81015076616214,35.35745946464056,0.0 -117.81015083915318,35.3574379504803,0.0 -117.81015091405092,35.35741544117698,0.0 -117.81015099055378,35.357392027367624,0.0 -117.8101510683537,35.357367803331364,0.0 -117.8101511471374,35.35734286660986,0.0 -117.81015122658768,35.35731731761447,0.0 -117.81015130638458,35.357291259222,0.0 -117.81015138620683,35.3572647963604,0.0 -117.81015146573297,35.35723803558625,0.0 -117.8101515446428,35.357211084655766,0.0 -117.81015162261858,35.35718405209082,0.0 -117.8101516993463,35.35715704674202,0.0 -117.81015177451705,35.35713017735036,0.0 -117.81015184782812,35.357103552109415,0.0 -117.8101519189843,35.35707727822962,0.0 -117.8101519876991,35.357051461506614,0.0 -117.8101520536958,35.35702620589524,0.0 -117.81015211670868,35.35700161309093,0.0 -117.81015217648398,35.35697778212021,0.0 -117.81015223278104,35.356954808942014,0.0 -117.81015228537314,35.3569327860612,0.0 -117.81015233404852,35.35691180215615,0.0 -117.8101523786112,35.356891941721635,0.0 -117.81015241888173,35.35687328472862,0.0 -117.81015245469793,35.35685590630223,0.0 -117.81015248591562,35.35683987641925,0.0 -117.81015251240908,35.35682525962637,0.0 -117.81015253407162,35.356812114780254,0.0 -117.81015255081603,35.35680049481055,0.0 -117.81015256257488,35.356790446506785,0.0 -117.81015256930083,35.35678201032992,0.0 -117.81015257096676,35.356775220249475,0.0 -117.81015256756602,35.3567701036067,0.0 -117.81015255911225,35.35676668100451,0.0 -117.81015254563953,35.35676496622452,0.0 -117.81015252720209,35.35676496617153,0.0 -117.81015250387416,35.35676668084577,0.0 -117.8101524757497,35.356770103342846,0.0 -117.81015244294196,35.35677521988157,0.0 -117.810152405583,35.35678200985945,0.0 -117.81015236382329,35.35679044593563,0.0 -117.81015231783098,35.35680049414103,0.0 -117.81015226779127,35.35681211401504,0.0 -117.81015221390562,35.356825258768566,0.0 -117.81015215639103,35.3568398754723,0.0 -117.8101520954791,35.356855905269946,0.0 -117.81015203141509,35.35687328361516,0.0 -117.81015196445695,35.35689194053148,0.0 -117.81015189487432,35.356911800894096,0.0 -117.81015182294738,35.35693278473233,0.0 -117.81015174896574,35.35695480755167,0.0 -117.81015167322731,35.35697778067401,0.0 -117.81015159603706,35.357001611594676,0.0 -117.8101515177058,35.35702620435497,0.0 -117.81015143854896,35.35705145992853,0.0 -117.81015135888526,35.35707727662007,0.0 -117.8101512790355,35.357103550474875,0.0 -117.81015119932117,35.35713017569743,0.0 -117.81015112006328,35.35715704507734,0.0 -117.81015104158097,35.3571840504211,0.0 -117.81015096419024,35.357211082987725,0.0 -117.81015088820274,35.357238033926606,0.0 -117.81015081392444,35.35726479471583,0.0 -117.81015074165443,35.357291257599144,0.0 -117.81015067168372,35.35731731601985,0.0 -117.81015060429404,35.357342865049894,0.0 -117.81015053975676,35.357367801812345,0.0 -117.81015047833175,35.357392025895656,0.0 -117.81015042026632,35.357415439758,0.0 -117.81015036579433,35.35743794912002,0.0 -117.81015031513508,35.35745946334445,0.0 -117.81015026849256,35.357479895801106,0.0 -117.8101502260546,35.3574991642157,0.0 -117.81015018799208,35.35751719100113,0.0 -117.81015015445824,35.35753390356988,0.0 -117.81015012558814,35.35754923462635,0.0 -117.81015010149801,35.357563122437774,0.0 -117.81015008228485,35.35757551108284,0.0 -117.81015006802605,35.35758635067685,0.0 -117.810150058779,35.35759559757258,0.0 -117.81015005458094,35.357603214536056,0.0 -117.81015005544877,35.357609170896446,0.0 -117.81015006137902,35.35761344266958,0.0 -117.81015007234778,35.35761601265455,0.0 -117.8101500883109,35.35761687050293,0.0</coordinates>
                        </LinearRing>
                    </outerBoundaryIs>
                </Polygon>
            </Placemark>
            <Placemark id="419">
                <name>3-Sigma Boundary</name>
                <styleUrl>#422</styleUrl>
                <Polygon id="418">
                    <outerBoundaryIs>
                        <LinearRing id="420">
                            <coordinates>-117.81015101765946,35.35729347161005,0.0 -117.81015102269374,35.357293264933986,0.0 -117.81015102889569,35.35729264571249,0.0 -117.8101510362403,35.35729161643895,0.0 -117.81015104469802,35.35729018125788,0.0 -117.81015105423478,35.357288345948255,0.0 -117.81015106481217,35.35728611790022,0.0 -117.81015107638764,35.35728350608533,0.0 -117.81015108891454,35.35728052102045,0.0 -117.81015110234243,35.357277174725375,0.0 -117.81015111661726,35.357273480674465,0.0 -117.81015113168155,35.35726945374235,0.0 -117.81015114747461,35.35726511014406,0.0 -117.8101511639329,35.35726046736975,0.0 -117.81015118099009,35.35725554411422,0.0 -117.81015119857754,35.357250360201675,0.0 -117.81015121662442,35.35724493650592,0.0 -117.81015123505804,35.357239294866254,0.0 -117.81015125380421,35.35723345799957,0.0 -117.81015127278742,35.35722744940887,0.0 -117.81015129193125,35.357221293288625,0.0 -117.81015131115859,35.35721501442736,0.0 -117.81015133039205,35.357208638107835,0.0 -117.81015134955415,35.35720219000524,0.0 -117.81015136856774,35.35719569608381,0.0 -117.81015138735629,35.35718918249226,0.0 -117.8101514058441,35.35718267545854,0.0 -117.81015142395675,35.357176201184174,0.0 -117.81015144162131,35.357169785738776,0.0 -117.81015145876665,35.357163454955085,0.0 -117.81015147532372,35.35715723432493,0.0 -117.81015149122585,35.3571511488966,0.0 -117.81015150640903,35.35714522317395,0.0 -117.8101515208121,35.35713948101779,0.0 -117.81015153437707,35.35713394554975,0.0 -117.81015154704933,35.357128639059205,0.0 -117.81015155877783,35.35712358291352,0.0 -117.81015156951537,35.35711879747202,0.0 -117.81015157921868,35.35711430200397,0.0 -117.81015158784874,35.35711011461105,0.0 -117.81015159537074,35.357106252154395,0.0 -117.81015160175443,35.35710273018677,0.0 -117.8101516069741,35.35709956288989,0.0 -117.81015161100872,35.357096763017346,0.0 -117.81015161384207,35.357094341843236,0.0 -117.8101516154627,35.357092309116766,0.0 -117.81015161586411,35.357090673023016,0.0 -117.81015161504469,35.357089440149956,0.0 -117.81015161300773,35.357088615461926,0.0 -117.81015160976143,35.357088202279655,0.0 -117.81015160531886,35.357088202266894,0.0 -117.81015159969792,35.35708861542368,0.0 -117.81015159292123,35.357089440086376,0.0 -117.81015158501609,35.35709067293437,0.0 -117.81015157601432,35.357092309003406,0.0 -117.81015156595217,35.35709434170561,0.0 -117.81015155487016,35.357096762856024,0.0 -117.81015154281292,35.357099562705514,0.0 -117.81015152982897,35.35710272998008,0.0 -117.81015151597063,35.357106251926226,0.0 -117.81015150129369,35.357110114362314,0.0 -117.81015148585723,35.35711430173568,0.0 -117.81015146972344,35.357118797185244,0.0 -117.81015145295726,35.357123582609425,0.0 -117.81015143562621,35.35712863873901,0.0 -117.81015141780007,35.35713394521474,0.0 -117.81015139955063,35.35713948066932,0.0 -117.81015138095137,35.35714522281342,0.0 -117.81015136207718,35.35715114852546,0.0 -117.81015134300407,35.35715723394468,0.0 -117.81015132380881,35.35716345456726,0.0 -117.81015130456873,35.35716978534493,0.0 -117.81015128536129,35.357176200785894,0.0 -117.81015126626382,35.35718267505743,0.0 -117.81015124735323,35.35718918208993,0.0 -117.81015122870566,35.35719569568188,0.0 -117.81015121039621,35.357202189605346,0.0 -117.8101511924986,35.35720863771157,0.0 -117.81015117508488,35.35721501403633,0.0 -117.81015115822518,35.35722129290439,0.0 -117.8101511419874,35.35722744903299,0.0 -117.81015112643692,35.357233457633555,0.0 -117.81015111163634,35.35723929451158,0.0 -117.81015109764529,35.35724493616401,0.0 -117.81015108452007,35.35725035987391,0.0 -117.81015107231354,35.35725554380191,0.0 -117.81015106107486,35.35726046707416,0.0 -117.81015105084929,35.35726510986639,0.0 -117.81015104167798,35.3572694534837,0.0 -117.81015103359789,35.35727348043589,0.0 -117.81015102664153,35.357277174507836,0.0 -117.81015102083694,35.357280520824816,0.0 -117.81015101620746,35.35728350591239,0.0 -117.81015101277175,35.357286117750675,0.0 -117.81015101054363,35.3572883458227,0.0 -117.8101510095321,35.35729018115683,0.0 -117.81015100974122,35.3572916163628,0.0 -117.81015101117012,35.35729264566155,0.0 -117.81015101381308,35.35729326490846,0.0 -117.81015101765946,35.35729347161005,0.0</coordinates>
                        </LinearRing>
                    </outerBoundaryIs>
                </Polygon>
            </Placemark>
        </Folder>
    </Document>
</kml>
